[{"OBJECT_NAME":"DUCHIFAT-1","OBJECT_ID":"2014-033M","EPOCH":"2026-03-09T16:47:47.078880","MEAN_MOTION":15.49813944,"ECCENTRICITY":0.00061121,"INCLINATION":98.0631,"RA_OF_ASC_NODE":115.1281,"ARG_OF_PERICENTER":85.0468,"MEAN_ANOMALY":275.1479,"EPHEMERIS_TYPE":0,"CLASSIFICATION_TYPE":"U","NORAD_CAT_ID":40021,"ELEMENT_SET_NO":999,"REV_AT_EPOCH":64027,"BSTAR":0.0010480156,"MEAN_MOTION_DOT":0.0005864,"MEAN_MOTION_DDOT":0},{"OBJECT_NAME":"STARLINK-1465","OBJECT_ID":"2020-038B","EPOCH":"2026-03-09T15:28:50.106432","MEAN_MOTION":15.49944768,"ECCENTRICITY":0.0002775,"INCLINATION":53.0523,"RA_OF_ASC_NODE":223.378,"ARG_OF_PERICENTER":263.9704,"MEAN_ANOMALY":96.0987,"EPHEMERIS_TYPE":0,"CLASSIFICATION_TYPE":"U","NORAD_CAT_ID":45731,"ELEMENT_SET_NO":999,"REV_AT_EPOCH":31637,"BSTAR":0.0018481,"MEAN_MOTION_DOT":0.00106119,"MEAN_MOTION_DDOT":0}]
