DUCHIFAT-1              
1 40021U 14033M   26068.69985044  .00058640  00000+0  10480-2 0  9992
2 40021  98.0631 115.1281 0006112  85.0468 275.1479 15.49813944640278
STARLINK-1465           
1 45731U 20038B   26068.64502438  .00106119  00000+0  18481-2 0  9998
2 45731  53.0523 223.3780 0002775 263.9704  96.0987 15.49944768316373
